STARLINK-4067           
1 52668U 22053N   26068.46675048  .00001617  00000+0  11971-3 0  9997
2 52668  53.2172 155.1239 0001336  78.6900 281.4243 15.08830839211012
SEDNA-2                 
1 63153U 25009DQ  26068.79893845  .00008085  00000+0  49393-3 0  9990
2 63153  97.4615 144.8075 0010309  53.0260 307.1912 15.10492622 63116
